QIANFAN-65              
1 62795U 25016L   25256.89006712  .00000064  00000+0  80386-4 0  9994
2 62795  88.9760 112.3581 0012170 240.7228 119.2707 13.50968395 35112
QIANFAN-66              
1 62796U 25016M   25256.84481156  .00000065  00000+0  81802-4 0  9994
2 62796  88.9780 112.3153 0013331 236.0967 123.8917 13.50963638 35151
QIANFAN-67              
1 62797U 25016N   25256.92288614  .00000071  00000+0  91066-4 0  9998
2 62797  88.9770 112.3416 0013239 243.6401 116.3392 13.50965053 35132
QIANFAN-68              
1 62798U 25016P   25256.92359239  .00000033  00000+0  32380-4 0  9993
2 62798  88.9773 112.3856 0013477 242.0103 117.9686 13.52427869 35111
QIANFAN-69              
1 62799U 25016Q   25256.93117368  .00000066  00000+0  83231-4 0  9997
2 62799  88.9752 112.2715 0014047 242.8929 117.0790 13.50965212 35158
QIANFAN-70              
1 62800U 25016R   25256.94759915  .00000067  00000+0  85111-4 0  9991
2 62800  88.9773 112.3892 0013747 231.9663 128.0248 13.50969424 35116
QIANFAN-71              
1 62801U 25016S   25256.94356340  .00000059  00000+0  72967-4 0  9993
2 62801  88.9767 112.3746 0013935 246.8444 113.1239 13.50968882 35111
QIANFAN-72              
1 62802U 25016T   25256.94061104  .00000064  00000+0  82263-4 0  9991
2 62802  88.9758 112.3925 0017457 254.7249 105.1972 13.49484616 35105
